{"type": "Feature", "properties": {"city_id": "calgary", "source": "data.calgary.ca/erra-cqp9", "generated": "2026-07-12", "buffer_m": 150.0, "vertices": 437}, "geometry": {"type": "Polygon", "coordinates": [[[-114.31626163360939, 51.1379597880677], [-114.31762284172498, 51.13897015132193], [-114.31794639719219, 51.13965022172749], [-114.31779899067799, 51.140177116144585], [-114.31747906974796, 51.140525590462396], [-114.31622591369782, 51.14100646296213], [-114.29541560973284, 51.140981048759], [-114.2945953199469, 51.140877738597204], [-114.29390039610632, 51.14058474926932], [-114.29352636910964, 51.14026646810206], [-114.29328487718597, 51.139762611950026], [-114.29332018995171, 51.1389335787976], [-114.2936093273198, 51.13848664338412], [-114.29237662309487, 51.13761153729509], [-114.29055539694457, 51.13689873872279], [-114.28997004857307, 51.13650692246457], [-114.28891813154641, 51.13474001012509], [-114.28768699553771, 51.13307703096804], [-114.2870620372469, 51.13250296218521], [-114.2864161769596, 51.13216287271281], [-114.28603269713172, 51.13170016126564], [-114.28604038079706, 51.130923598925605], [-114.28670688803562, 51.13028248473926], [-114.28560279793294, 51.13013100410091], [-114.28483593272747, 51.129703241087086], [-114.28333260959715, 51.126974352999596], [-114.2828259670416, 51.12669795150783], [-114.2797282199267, 51.12659869844706], [-114.2790302061862, 51.126307553342166], [-114.27856286934707, 51.125870276248655], [-114.27824981094182, 51.12501282241497], [-114.27825064339285, 51.11783132121272], [-114.27839868758547, 51.11734185506524], [-114.27839890043978, 51.11588381249212], [-114.27380510544816, 51.115879861922615], [-114.27265529120109, 51.11558066032533], [-114.27212454854462, 51.11517395466098], [-114.27188164078812, 51.1146703378928], [-114.27187097829197, 51.11191010035742], [-114.27121007114421, 51.11191046567045], [-114.27121189387321, 51.11661508055215], [-114.27095859971162, 51.11725109454179], [-114.27007802066734, 51.11780467124783], [-114.26872682445796, 51.11795659396365], [-114.26757881403132, 51.11765640850498], [-114.26685311376423, 51.1169150303585], [-114.2668534317071, 51.118596565070135], [-114.2697025164782, 51.11865753120757], [-114.27058965289444, 51.11899508046379], [-114.27105074672794, 51.11943118693408], [-114.27121294761884, 51.11994497954121], [-114.27121387608148, 51.122712140007245], [-114.27096085079546, 51.12334763828581], [-114.27043055402014, 51.12375424127748], [-114.26969337140665, 51.124002193741084], [-114.26685648521543, 51.12406004136856], [-114.26684690973045, 51.125095914404326], [-114.26660447954252, 51.125599819567086], [-114.26590482271946, 51.12608575718434], [-114.26492360541417, 51.12630650871053], [-114.26360722111224, 51.12621019001577], [-114.26277185384824, 51.125820546049304], [-114.2623264120745, 51.12522928895643], [-114.26228384811034, 51.12424516999127], [-114.26191687094257, 51.124059112590764], [-114.25982193078484, 51.124058728733516], [-114.25977462772559, 51.15422401833391], [-114.25952130862179, 51.154858877280965], [-114.25882239303652, 51.1553438890425], [-114.2578426089178, 51.15556473384868], [-114.2365196702346, 51.15559615223619], [-114.23653536131978, 51.183299649045004], [-114.23637199255703, 51.18381527456867], [-114.23604852678588, 51.18415443720016], [-114.23521179172512, 51.184544614505164], [-114.2343913898441, 51.1846474134772], [-114.21327421068011, 51.184712903111325], [-114.21330440115929, 51.19789707711286], [-114.21306161610558, 51.19840129491754], [-114.2126860852654, 51.19871959179453], [-114.21158560765589, 51.19908881039617], [-114.16794606781673, 51.199071076521015], [-114.16712648958185, 51.19896747947786], [-114.16631187232504, 51.198591407759444], [-114.16569772853056, 51.198904631158086], [-114.16489492686989, 51.19905910588196], [-114.15253432028074, 51.19908696847506], [-114.15134113832043, 51.198861807788425], [-114.15050704798422, 51.19818646901952], [-114.14334029119848, 51.1981982313214], [-114.142681069775, 51.19879697257044], [-114.14153604307548, 51.199098209369744], [-114.13168608517203, 51.19913795429611], [-114.13167788294518, 51.21240201252186], [-114.13143653615278, 51.212903753125794], [-114.13106384921723, 51.21322093647616], [-114.12997101806981, 51.213591318503326], [-114.01288048687232, 51.21375442941936], [-114.011781655012, 51.21338608840791], [-114.01119352871892, 51.21269650092129], [-114.01114123852072, 51.20659580720351], [-114.00246076950604, 51.206593084975054], [-114.00130905218475, 51.20629379574813], [-114.00061637216022, 51.205642905225844], [-114.00052451004993, 51.18488829747514], [-113.91171145706903, 51.18487845921888], [-113.91089131975838, 51.18477513087452], [-113.91019643174035, 51.184482515655226], [-113.90973246626825, 51.184045113755644], [-113.90956997294927, 51.18352944251162], [-113.90961472544546, 51.06101154428262], [-113.89031842828608, 51.06112879399035], [-113.88930818899061, 51.06129057410046], [-113.87703700220436, 51.06129406785942], [-113.87574829338993, 51.061020403594014], [-113.86554566579092, 51.061022162145704], [-113.86472666110598, 51.060919544745325], [-113.86403240283907, 51.060627153690014], [-113.86356867932, 51.06018954387701], [-113.86340614421817, 51.0596733971529], [-113.86343265173366, 51.016100677654364], [-113.86359547115069, 51.01558492112524], [-113.86438252860673, 51.01498009888339], [-113.86556958187255, 51.014752928963944], [-113.90963062756937, 51.014742630372126], [-113.90964911314907, 50.98055777166983], [-113.90371877269963, 50.98056029545631], [-113.90243240525187, 50.98083469648459], [-113.86945408595669, 50.98092717997103], [-113.86491226113347, 50.98077864628516], [-113.86402179059591, 50.98044143468943], [-113.86348856322995, 50.9798789520203], [-113.86355509100967, 50.94285360813967], [-113.86424383424901, 50.942203699976574], [-113.86538779922927, 50.94190476590785], [-113.8731324717765, 50.94190463494047], [-113.87500237725396, 50.9423817103251], [-113.87500229401604, 50.92788735429072], [-113.87516391449161, 50.92737067000672], [-113.87578170467816, 50.92684355866704], [-113.87692733295245, 50.92654373433226], [-113.88681632208792, 50.926543055114244], [-113.88676142437588, 50.92296033231565], [-113.85991005387736, 50.92291557702557], [-113.85876601408688, 50.92261591198819], [-113.8580782607117, 50.92196498872199], [-113.85789553480586, 50.9142043145964], [-113.85788079634393, 50.90848761897188], [-113.8580157259519, 50.906866578126426], [-113.85787383129536, 50.90554536042866], [-113.85784012747261, 50.892457395989695], [-113.85778301307704, 50.85775261224134], [-113.85794553633265, 50.857234114565344], [-113.85841053337234, 50.85679502820594], [-113.85954964056022, 50.85615516828941], [-113.86144689771115, 50.8558140330327], [-113.86929106774376, 50.85753996226923], [-113.87310220721986, 50.85784233042207], [-113.87859086614203, 50.857484396065054], [-113.87958272024723, 50.85770838954073], [-113.88090693786282, 50.85830265515846], [-113.88473558757467, 50.8588303512696], [-113.89275435021125, 50.859056249671234], [-113.89587063178885, 50.858869726241316], [-113.89863224791448, 50.8584147261934], [-113.89890541408454, 50.85832006697489], [-113.90099246000084, 50.85638363303876], [-113.90409594469523, 50.85457177011774], [-113.90721508306902, 50.853085237228655], [-113.91048798866305, 50.852312913014394], [-113.91428049986654, 50.85174454641638], [-113.91953662397097, 50.8518518409319], [-113.9211328136364, 50.85119587041073], [-113.92403501841844, 50.850863874914545], [-113.9348538279098, 50.85126634465414], [-113.93863011274908, 50.85044891391671], [-113.9408035805543, 50.84952199052794], [-113.94294673748603, 50.84822896231437], [-113.94562184130824, 50.844712134130404], [-113.94765193046662, 50.84286898886491], [-113.9495288825175, 50.84204355244702], [-113.95113939253402, 50.841631950306905], [-113.95256771053474, 50.84148498557011], [-113.9551013198496, 50.8418105475464], [-113.95668778464676, 50.84268198773638], [-113.95776355753273, 50.84407421458153], [-113.95849828668925, 50.84542694235926], [-113.95868585560815, 50.84620838273027], [-113.95872619037432, 50.84788187986426], [-113.95920933185224, 50.849211744074076], [-113.9606501989562, 50.849378247567785], [-113.96142399696403, 50.84968314645515], [-113.96250742173422, 50.85060152519809], [-113.96322312793454, 50.85159291679975], [-113.96418084660506, 50.85231956583493], [-113.96457358617243, 50.85287913549529], [-113.96557426698092, 50.85333629425266], [-113.96611485302303, 50.85393242921126], [-113.96674007930714, 50.85408500363377], [-113.96841920521479, 50.85329584472871], [-113.97025585408394, 50.85307339975479], [-113.97014477687522, 50.852166723656126], [-113.97169015774934, 50.84807367644954], [-113.97237842045679, 50.84745528095928], [-113.97348440907231, 50.8471689069904], [-113.99850917284814, 50.84707912914841], [-114.02485023969663, 50.84720232615012], [-114.02601651989521, 50.84742648232738], [-114.04647941911279, 50.84741881307271], [-114.04765969532421, 50.84719080825405], [-114.07121107647737, 50.847198403652754], [-114.07230144725402, 50.84756858489872], [-114.07288274312361, 50.84826004450931], [-114.0729089562216, 50.85261182583804], [-114.07492790300962, 50.85117363958704], [-114.07566676798494, 50.85092940409779], [-114.07649712200003, 50.85088338577013], [-114.0774702151514, 50.85111231601599], [-114.07906934948515, 50.851957249641615], [-114.08055659751047, 50.85314856074213], [-114.0813682731686, 50.854932724122826], [-114.08204853893417, 50.85560562856909], [-114.08204706415111, 50.856422703187086], [-114.08247526233892, 50.8574217858317], [-114.08247824451468, 50.85789734276522], [-114.08330391909034, 50.8582429729457], [-114.08380679584944, 50.8588228278859], [-114.0841311355142, 50.86028720970276], [-114.08377495707803, 50.860979378410676], [-114.08406654089103, 50.861668288024106], [-114.09433844714842, 50.86167725962197], [-114.09549358420611, 50.86197784958558], [-114.09611399829983, 50.86251046540518], [-114.09627172144626, 50.863032330969666], [-114.09625073377899, 50.87008390231898], [-114.09596381303552, 50.87075454544433], [-114.09596269952716, 50.87344673211699], [-114.09624821898717, 50.874116241468315], [-114.09624006267144, 50.8880951237168], [-114.09646509030605, 50.89004680982595], [-114.11170534064911, 50.89003842843051], [-114.11368873710816, 50.88879818540963], [-114.11209934330064, 50.88510591660248], [-114.11217214921216, 50.884461346879604], [-114.11271074652488, 50.88391224760046], [-114.11399575710915, 50.883534867207516], [-114.12304690124827, 50.88352517737988], [-114.12423266437447, 50.88375195901409], [-114.12501877477956, 50.884357594544845], [-114.12518093344596, 50.884874172200426], [-114.12517899183618, 50.8870715570416], [-114.14052303789025, 50.887052771629484], [-114.14152956149475, 50.88721108463235], [-114.14229880581401, 50.887651145552034], [-114.14261786267778, 50.88813770938557], [-114.14265872257126, 50.890637543975295], [-114.20982380993014, 50.890625638473054], [-114.210640771381, 50.890727903332774], [-114.21133344143534, 50.89102034581864], [-114.21179609851434, 50.8914583321848], [-114.21195812107085, 50.89197501355975], [-114.21190926908302, 50.92146450850753], [-114.21165650324757, 50.922099738136005], [-114.2109599258952, 50.922584707551174], [-114.20977491492238, 50.92281135594047], [-114.14341185106846, 50.92278091720364], [-114.14341373664239, 50.923356314556166], [-114.14465198754897, 50.9250729338529], [-114.14541177865193, 50.926862006825225], [-114.14615822956358, 50.928135968660044], [-114.14655647631744, 50.93101156567], [-114.1460380248473, 50.93514437483357], [-114.14747074832596, 50.93567440050463], [-114.14793215728236, 50.93612700778845], [-114.14807233229375, 50.93652218492302], [-114.14796078998212, 50.93705593514593], [-114.14766307705786, 50.93741457668392], [-114.14580644251897, 50.93854999997805], [-114.14621245212959, 50.941651724357875], [-114.14642427204681, 50.948379730484966], [-114.14803547523195, 50.94941476880989], [-114.14841472509607, 50.95011418771619], [-114.14843420005221, 50.95153537346127], [-114.14734853324991, 50.95300219388598], [-114.14736374050626, 50.95739404899302], [-114.14751972917337, 50.95780307687138], [-114.14886556614054, 50.96015196354561], [-114.15401499632806, 50.9663951666047], [-114.15996519200772, 50.972465246977684], [-114.16175057602524, 50.972775277196114], [-114.16256356376428, 50.97311618229558], [-114.1659874868658, 50.97646349571726], [-114.16745622098645, 50.982289546716885], [-114.16966180933507, 50.98507149342199], [-114.17115778277234, 50.98803708509657], [-114.17326772623922, 50.98869268405909], [-114.17642922808288, 50.98933407349514], [-114.17705704916673, 50.98965417564903], [-114.17745189631898, 50.99009844310689], [-114.17753583670256, 50.990730803325555], [-114.17632526331037, 50.99561146834287], [-114.1741208239569, 50.998018733369584], [-114.17498685831158, 50.99942694490786], [-114.17500578183727, 51.00010752138582], [-114.17375772399677, 51.00153094875933], [-114.17313460602236, 51.00280303160758], [-114.17257793221901, 51.00318665959545], [-114.17169365411306, 51.00342640424541], [-114.17170274646757, 51.004237107968436], [-114.1728354114419, 51.004526073336976], [-114.17414533670097, 51.004067549908115], [-114.17629160132378, 51.00416235108323], [-114.1773096818736, 51.00464985664075], [-114.1776001863007, 51.00501424690587], [-114.17773843831627, 51.00554753415819], [-114.18606264193528, 51.00732050929524], [-114.23439066404345, 51.00735685223697], [-114.2355797642631, 51.00758638670727], [-114.23627597507964, 51.008074572067144], [-114.23652405990512, 51.008712346067476], [-114.23646989936465, 51.01999856876491], [-114.2363850033547, 51.02037053224658], [-114.23603343388807, 51.02081019731576], [-114.23602169995033, 51.024484733046485], [-114.23616983873826, 51.0249742138416], [-114.23617256488173, 51.02837007047562], [-114.23645008429814, 51.02891411796414], [-114.2365352962893, 51.03056419368866], [-114.23650137863682, 51.08017301073085], [-114.25614625793983, 51.080195504233124], [-114.25615630994012, 51.078672480363146], [-114.25641017345455, 51.07815804743956], [-114.2571391361544, 51.077669009604094], [-114.25836712003128, 51.07746012503566], [-114.26017446222832, 51.07787744935571], [-114.26256109476212, 51.07811023505841], [-114.26498955825761, 51.079223332046425], [-114.2652643472133, 51.07845835988886], [-114.26591115180997, 51.07795725122942], [-114.26685370792008, 51.07770312428326], [-114.26787574353645, 51.07775428869664], [-114.27075025106646, 51.07893888133752], [-114.27119615072914, 51.07953301388122], [-114.27123596915126, 51.08017481117646], [-114.29232108427921, 51.08016174065826], [-114.29332885108224, 51.080321494771006], [-114.29397347224354, 51.08065518585714], [-114.29436658125951, 51.08111876892568], [-114.29445868710033, 51.08150977515599], [-114.2944620543429, 51.09595097468933], [-114.29427676275338, 51.096640170374044], [-114.29348802072263, 51.097249715651856], [-114.29250423528343, 51.097472079855365], [-114.28297168855003, 51.09747186057058], [-114.28297108358211, 51.099965065576626], [-114.28399616207952, 51.10038009940191], [-114.2844768715551, 51.100826964913495], [-114.2847674752377, 51.10160406972339], [-114.28471471947438, 51.10228257327864], [-114.28975863741077, 51.10492913445977], [-114.29097084022256, 51.1060138901366], [-114.29167089193028, 51.10713802128659], [-114.29220873352924, 51.10868174761686], [-114.29245286061256, 51.11064607804755], [-114.291757905979, 51.11357262252857], [-114.29084313908879, 51.115870226757906], [-114.29079035973416, 51.11632678822962], [-114.29099530245367, 51.11703214319121], [-114.2918459728246, 51.11855300954129], [-114.29290845013224, 51.11951955070272], [-114.29443800927642, 51.12044722989609], [-114.29700404772723, 51.12168246569887], [-114.29810325544042, 51.12187503685714], [-114.29978179151433, 51.122515315576976], [-114.30099778364185, 51.12343166669835], [-114.30371057091799, 51.12445830877408], [-114.30533248179393, 51.12476634114332], [-114.30678910695741, 51.12552449387052], [-114.3079585914696, 51.12637922018026], [-114.31012576338266, 51.128488082806946], [-114.31087604862064, 51.1300433521029], [-114.31106713372351, 51.13086639289188], [-114.31106978349621, 51.13189910890035], [-114.31181168223227, 51.133225395369436], [-114.31269799635074, 51.134213031488855], [-114.3129096087835, 51.134793327514124], [-114.31455718681896, 51.1366451101729], [-114.31626163360939, 51.1379597880677]], [[-114.14864982175843, 50.97616903206901], [-114.14867019881815, 50.97519037450955], [-114.14919315554508, 50.973884180325726], [-114.14925710032601, 50.97327179299353], [-114.14898881495367, 50.972491658640664], [-114.1482153223904, 50.971524229071086], [-114.14831321074456, 50.976192478187045], [-114.14864982175843, 50.97616903206901]], [[-114.14352994459287, 50.976442304671885], [-114.14351624427532, 50.972436151960416], [-114.14343315049204, 50.97177831795618], [-114.14343482842867, 50.97644240278937], [-114.14352994459287, 50.976442304671885]], [[-114.15827603012463, 50.98321854200403], [-114.15512576603322, 50.97948341690025], [-114.15389017910844, 50.9794511018619], [-114.15005570759507, 50.97987641129754], [-114.14592408967266, 50.9798982824828], [-114.15396864790087, 50.983068171258516], [-114.15827603012463, 50.98321854200403]], [[-114.16163231363456, 50.99897647426541], [-114.16117378268576, 50.999104300400326], [-114.16154735552337, 50.99911106086029], [-114.16163231363456, 50.99897647426541]], [[-114.15796524033397, 50.99958007714996], [-114.156647541207, 50.99947004617947], [-114.15518500526393, 50.999012919352566], [-114.15080389684834, 50.9985139453475], [-114.14344577772309, 50.995833866900966], [-114.14344438229105, 51.00147746518623], [-114.14574601295881, 51.00231308780471], [-114.14622681752742, 51.00275592554765], [-114.14638508520268, 51.00314715487316], [-114.14622580883884, 51.00380800943042], [-114.145328279285, 51.004680139426604], [-114.14463581046746, 51.00590499895148], [-114.14520888160472, 51.00664629928972], [-114.14675027055834, 51.006746150768436], [-114.15386594652485, 51.006536454304026], [-114.1565875997926, 51.00616513314889], [-114.15784285984941, 51.00437992115974], [-114.15866648547807, 51.0038219191195], [-114.16042523667846, 51.003039523184114], [-114.16073294573881, 51.00258187552212], [-114.15868224005405, 51.00225021044291], [-114.15774710976036, 51.0017266268079], [-114.15743634877991, 51.00096253256761], [-114.1576549492922, 51.00001461507904], [-114.15796524033397, 50.99958007714996]]]}}