{"type": "Feature", "properties": {"city_id": "vancouver", "source": "opendata.vancouver.ca/local-area-boundary (union of 22 areas)", "generated": "2026-07-12", "buffer_m": 150.0, "vertices": 745}, "geometry": {"type": "Polygon", "coordinates": [[[-123.22168198875623, 49.26719758500215], [-123.22169287759655, 49.26719654279969], [-123.22188995157885, 49.267190154333136], [-123.22208705631938, 49.26719612258375], [-123.2222823868203, 49.267214392896676], [-123.22247415432754, 49.267244797960075], [-123.22266060270766, 49.26728705933692], [-123.2228400245262, 49.267340790014146], [-123.22301077668065, 49.26740549794609], [-123.22317129544503, 49.26748059055937], [-123.22332011078812, 49.26756538017835], [-123.22345585983491, 49.267659090321466], [-123.22357729934726, 49.267760862810775], [-123.22368331711019, 49.267869765629584], [-123.22377294211928, 49.26798480145649], [-123.22384535347553, 49.26810491679761], [-123.22389988790661, 49.268229011633274], [-123.22393604584526, 49.26835594949121], [-123.223953496009, 49.268484567853754], [-123.22395207843914, 49.26861368880389], [-123.2238520374532, 49.26980161667623], [-123.22589952128965, 49.27139944727264], [-123.22601505279324, 49.27149856441965], [-123.2261161122078, 49.27160423532375], [-123.22620183688237, 49.271715558068934], [-123.22627149503467, 49.27183158249376], [-123.22632449200022, 49.27195131830032], [-123.22636037531116, 49.272073743505906], [-123.22688689994176, 49.27446173463468], [-123.22690603896046, 49.27459509067058], [-123.22690487610673, 49.27472903122818], [-123.22663035249757, 49.27797152855975], [-123.22662729615195, 49.27800155759525], [-123.22650526825322, 49.279027713251274], [-123.22647989704897, 49.2791582893773], [-123.22643519946008, 49.27928662678167], [-123.22637160072317, 49.27941150408309], [-123.22628970596871, 49.27953173282085], [-123.22619029446699, 49.279646168766305], [-123.22607431221586, 49.27975372281374], [-123.22594286294093, 49.27985337134667], [-123.22579719759358, 49.27994416598134], [-123.225638702447, 49.28002524259413], [-123.22546888590283, 49.28009582954708], [-123.22528936413472, 49.28015525503337], [-123.22510184570507, 49.2802029534725], [-123.22490811530143, 49.28023847089424], [-123.2247100167477, 49.28026146926045], [-123.22450943545176, 49.28027172968295], [-123.224308280457, 49.28026915450742], [-123.20501301886677, 49.27940319558457], [-123.2048077615015, 49.27938717256376], [-123.20460598710383, 49.27935778660982], [-123.18904026314505, 49.276547212971096], [-123.18530420898603, 49.276315067181116], [-123.17387371427247, 49.27570233602774], [-123.16521693074866, 49.276886821432285], [-123.16500120994958, 49.27690860764552], [-123.16478317793573, 49.276915353470734], [-123.16057469910302, 49.2768995957208], [-123.15413775996156, 49.281246653489234], [-123.15398720674044, 49.28133864052206], [-123.15382337734228, 49.28142034284557], [-123.153647906268, 49.28149094529774], [-123.15346254419384, 49.28154974345915], [-123.15326914050253, 49.281596150682624], [-123.15306962482866, 49.28162970394758], [-123.15286598780256, 49.28165006848096], [-123.15266026118469, 49.28165704109799], [-123.14600724764998, 49.28166467087316], [-123.14580612130943, 49.28165846557726], [-123.14560687846638, 49.28163945914533], [-123.14541141825683, 49.281607832742225], [-123.14534934001364, 49.28159346073605], [-123.1472934794043, 49.283654122863254], [-123.14739037931346, 49.28376896533649], [-123.14746977489881, 49.28388942053181], [-123.14753091563374, 49.28401434998327], [-123.14757322351075, 49.28414257292851], [-123.14759629850931, 49.28427287746768], [-123.14759992238187, 49.28440403201721], [-123.14749492781444, 49.28665108967357], [-123.14931042956357, 49.28802301727167], [-123.14943687111152, 49.288128766850676], [-123.14954662151726, 49.28824221215841], [-123.14963859415752, 49.288362230110494], [-123.14971187838448, 49.2884876325465], [-123.1497657485453, 49.28861717799128], [-123.14979967117118, 49.28874958394438], [-123.14981331026432, 49.28888353957603], [-123.14980653063071, 49.28901771870395], [-123.1497793992249, 49.28915079292251], [-123.14973218449376, 49.28928144475442], [-123.14966535372508, 49.28940838069449], [-123.14957956842724, 49.289530344016704], [-123.14947567778525, 49.28964612721725], [-123.14935471025777, 49.28975458397071], [-123.14921786339859, 49.289854640480826], [-123.14315249778825, 49.293867778339795], [-123.14301552548619, 49.293950552936714], [-123.14286768343872, 49.294024898874696], [-123.14271017984096, 49.294090208560704], [-123.14254430186307, 49.29414594824834], [-123.14237140513004, 49.29419166240076], [-123.142192902641, 49.2942269774144], [-123.13916523240947, 49.29472945090999], [-123.1381590037354, 49.29539757294328], [-123.13617632018222, 49.29674597689076], [-123.13602517651431, 49.296838921764426], [-123.13586052339204, 49.296921468687735], [-123.13568402589917, 49.29699278285899], [-123.13549746892659, 49.29705214307058], [-123.13530273911987, 49.297098949004095], [-123.13510180579634, 49.29713272730285], [-123.13489670102547, 49.29715313636006], [-123.1346894990735, 49.29715996977434], [-123.13448229542121, 49.297153158437744], [-123.13427718556655, 49.29713277123468], [-123.1340762438274, 49.29709901434518], [-123.13388150235849, 49.29705222915927], [-123.13369493059547, 49.296992888823624], [-123.12199912511738, 49.29278388246233], [-123.11187073664993, 49.29148914941117], [-123.11169961899037, 49.291462263857184], [-123.11153262774779, 49.29142593610318], [-123.10420238921058, 49.28960036669133], [-123.09996563624858, 49.290546931784135], [-123.09458913137581, 49.291788252993825], [-123.0944098429616, 49.291823742451044], [-123.09422637161028, 49.29184844772145], [-123.09404023026282, 49.29186216507985], [-123.09385295388292, 49.29186478140969], [-123.07696902038191, 49.29159775162096], [-123.06772994864632, 49.29145279522068], [-123.06743687963402, 49.291434439433836], [-123.06445425033948, 49.2911057620391], [-123.06444762056724, 49.29113534242798], [-123.0643989076205, 49.29126357979219], [-123.06433125089617, 49.29138808559494], [-123.064245299139, 49.2915076657209], [-123.06414187657552, 49.29162117328767], [-123.06402197501306, 49.291727519646656], [-123.06388674433056, 49.29182568482547], [-123.06373748145249, 49.29191472731203], [-123.06357561791106, 49.29199379308611], [-123.05763987556081, 49.29460691939894], [-123.05747426443153, 49.29467264856541], [-123.05729995655939, 49.29472792782272], [-123.0571184890008, 49.29477226970722], [-123.05693146196204, 49.294805283201974], [-123.05234607956493, 49.29546524331072], [-123.05213597447387, 49.29548811506848], [-123.05192338336717, 49.295496696164776], [-123.04665132786839, 49.295531029414704], [-123.04639879790882, 49.29552253216204], [-123.04614975456133, 49.29549389248401], [-123.03723579017641, 49.294095347156286], [-123.02337819289006, 49.29487761063113], [-123.02317254744533, 49.29488246935422], [-123.02296718500453, 49.294873904201324], [-123.02276414901621, 49.29485200039942], [-123.02256545977406, 49.294816975900964], [-123.02237309430943, 49.294769179214335], [-123.02218896671485, 49.29470908593542], [-123.02201490909457, 49.29463729401415], [-123.0218526533317, 49.2945545178033], [-123.02170381385392, 49.29446158094914], [-123.0215698715686, 49.29435940819421], [-123.02145215912826, 49.294249016174454], [-123.02135184767205, 49.29413150330188], [-123.02126993517561, 49.294008038833645], [-123.02120723652504, 49.29387985123672], [-123.02116437541372, 49.29374821596336], [-123.02114177814195, 49.29361444275962], [-123.02113966938171, 49.29347986263296], [-123.02116891462923, 49.29299764802139], [-123.02150542596175, 49.26552052264355], [-123.0214990772041, 49.234791001788054], [-123.02149908134213, 49.234788109156405], [-123.02150679341291, 49.23227383137562], [-123.02120266404123, 49.20941958186948], [-123.0212030432129, 49.20937938865856], [-123.02150097395649, 49.20011730890312], [-123.02151546681237, 49.199983438546546], [-123.02155018211302, 49.19985117384108], [-123.02160477625924, 49.19972182328474], [-123.02167870900121, 49.19959666653577], [-123.02177124878878, 49.19947694175391], [-123.02188148001363, 49.199363833352464], [-123.02200831207138, 49.199258460282415], [-123.02215049015386, 49.19916186496439], [-123.02230660766463, 49.199075002977864], [-123.02247512013487, 49.19899873360958], [-123.02265436050202, 49.198933811354564], [-123.02284255560005, 49.19888087845382], [-123.02303784369816, 49.19884045854215], [-123.02323829291473, 49.19881295146953], [-123.02344192032433, 49.19879862934629], [-123.02364671156937, 49.19879763385218], [-123.02385064078192, 49.1988099748349], [-123.02405169061946, 49.198835530212946], [-123.02424787221659, 49.19887404718283], [-123.0403594312307, 49.20261745478437], [-123.04236994873273, 49.20265347107329], [-123.05687110031711, 49.20285169917164], [-123.05850073478175, 49.20287073695702], [-123.05853710125012, 49.20287137214386], [-123.05952126641692, 49.202894259720715], [-123.0596422782112, 49.20289941465181], [-123.06062644368342, 49.20296044817934], [-123.06072409653372, 49.20296804925744], [-123.06170063326567, 49.20305959955749], [-123.06182116271879, 49.203073303842764], [-123.06279007106684, 49.203203000132184], [-123.06291211252534, 49.20322188939016], [-123.0638657635822, 49.203389731707006], [-123.06397012989387, 49.20341005249149], [-123.06491615293753, 49.203612226271076], [-123.06502236331299, 49.203637051869684], [-123.06593787091566, 49.20386974255939], [-123.06605242526224, 49.20390149790048], [-123.0669526762357, 49.20417233477462], [-123.06704952555559, 49.2042035092821], [-123.06792689057856, 49.20450486317309], [-123.06802783941885, 49.20454194179089], [-123.06887468949462, 49.20487381277573], [-123.06894074852565, 49.204900824103674], [-123.0696459040962, 49.20520144033525], [-123.06984867427752, 49.20528364381559], [-123.07003265287818, 49.20534732829107], [-123.07023161031773, 49.205407015228936], [-123.07041990031178, 49.20545523568013], [-123.0706459783915, 49.20550098941931], [-123.07484763953872, 49.20628278023377], [-123.07508451709603, 49.20631011219421], [-123.07537026198301, 49.20633252354616], [-123.07564460509755, 49.206345713157525], [-123.07592057110605, 49.20634571312521], [-123.07620992012569, 49.206337366542414], [-123.07648014283869, 49.20631882184552], [-123.07675571600001, 49.20628967471157], [-123.0770045591918, 49.20625261298431], [-123.07726699741227, 49.20620515084756], [-123.0775176871146, 49.20615065323322], [-123.07776192757957, 49.20608823645645], [-123.07800053006252, 49.2060177406123], [-123.07827980755812, 49.20592356614615], [-123.0790107548151, 49.20567611159321], [-123.07914683873918, 49.205634093624504], [-123.07990976260172, 49.205420475884644], [-123.08002301507331, 49.2053913262109], [-123.08078641638642, 49.205211702999], [-123.08762105915372, 49.203525730712805], [-123.0886498658236, 49.203233228463105], [-123.08873009379178, 49.203204054816474], [-123.0887789021475, 49.20318686509076], [-123.08894674587629, 49.20312964600265], [-123.08908164756575, 49.203087657209835], [-123.08925712007492, 49.2030380673757], [-123.0893666850817, 49.2030095124423], [-123.0895421572712, 49.20296755183786], [-123.08962418049876, 49.20294920975229], [-123.08980728170249, 49.20291106376266], [-123.08992361393986, 49.20288927187385], [-123.09010671489507, 49.202858755096095], [-123.0902284567683, 49.202841018177686], [-123.09041155752323, 49.202818130603276], [-123.0904867657714, 49.20280967267216], [-123.09067749562558, 49.20279059969734], [-123.0908574848534, 49.20277787538075], [-123.09104058537108, 49.202770246194476], [-123.09110844497334, 49.202768154429016], [-123.0912991746548, 49.202764339837664], [-123.09135445208298, 49.20276372077319], [-123.10377232068576, 49.202733229517015], [-123.10504394800813, 49.20272187566692], [-123.10519341515631, 49.20272409695373], [-123.10647511874278, 49.20277368670664], [-123.10654929182036, 49.20277743817355], [-123.10715962699899, 49.20281558413325], [-123.11167343783737, 49.203098169474146], [-123.11199654866552, 49.20310667239641], [-123.11230754519035, 49.20310394438059], [-123.11261954145618, 49.203087523510284], [-123.1129304226487, 49.20306025326554], [-123.11323187624346, 49.203019880040316], [-123.1135393369273, 49.20296677328688], [-123.11386568161367, 49.20289727409399], [-123.11641295095885, 49.20229705802761], [-123.11650231835988, 49.20227052721409], [-123.11662094203928, 49.20222703214698], [-123.11677087768605, 49.20216705841282], [-123.11690396024116, 49.20210740133433], [-123.11701776254927, 49.20205050090519], [-123.1171371156881, 49.2019816443674], [-123.11726980666374, 49.20189998982821], [-123.1173621668575, 49.20183649351497], [-123.11745021575808, 49.20176645637202], [-123.11755804803879, 49.20167146402749], [-123.11764825249672, 49.20158577260862], [-123.11774711091304, 49.201475934175626], [-123.11787548112117, 49.2013324673162], [-123.11795832369332, 49.201247348807435], [-123.11810328464266, 49.201110021811026], [-123.11816092958753, 49.20105809798346], [-123.11832114876297, 49.20092077112998], [-123.11838653337689, 49.20086757506307], [-123.11855438121819, 49.20073787761761], [-123.11862599100907, 49.2006853842034], [-123.1188014675071, 49.200563316147985], [-123.1189097834331, 49.20049333635299], [-123.11910051768606, 49.200378897711914], [-123.11912631922925, 49.200363677006386], [-123.11931705325905, 49.20025305302051], [-123.1194625695741, 49.20017608563514], [-123.11966856115635, 49.20007690566346], [-123.11975620946905, 49.200036955729075], [-123.1199774590653, 49.19994159044849], [-123.12004297056974, 49.199914495894596], [-123.1202642197548, 49.199826759884466], [-123.12039671020452, 49.199778494585665], [-123.12062558793338, 49.19970220247756], [-123.12072509458514, 49.19967120091866], [-123.12096160109388, 49.1996025380647], [-123.12100005127198, 49.19959168019632], [-123.12705766537667, 49.197928513659356], [-123.12729429075405, 49.1978743762857], [-123.12753920001339, 49.19783948044276], [-123.1288209046717, 49.1977097842204], [-123.12894998971309, 49.19769944452035], [-123.13023932275007, 49.19762315265324], [-123.13035986249795, 49.19761834968701], [-123.13165682434207, 49.19759164755579], [-123.13171618374832, 49.19759098628735], [-123.13395916472577, 49.1975871717454], [-123.13396454774296, 49.19758716714982], [-123.1346359161985, 49.19758716716569], [-123.13475927121402, 49.197589590512], [-123.13543826895312, 49.19761629269008], [-123.13556305498199, 49.19762370251066], [-123.13623442383178, 49.19767710685834], [-123.13631238104017, 49.197684301319555], [-123.13751016462274, 49.19781018300506], [-123.13767647325682, 49.197832301732], [-123.13783943772764, 49.197863320178506], [-123.13841162921096, 49.19798920198161], [-123.13851637525391, 49.198014334379344], [-123.13907330917999, 49.1981592892529], [-123.13917699174512, 49.198188454536336], [-123.13971866821971, 49.19835248251261], [-123.13980949747662, 49.1983817833876], [-123.14034354572624, 49.19856488448941], [-123.1404414742636, 49.19860071875241], [-123.14096026523141, 49.198802893028194], [-123.14105285037255, 49.19884119279525], [-123.1415487548035, 49.19905862567132], [-123.14164010725598, 49.1991010808491], [-123.14212075452897, 49.19933758698314], [-123.14219525704874, 49.199376035736414], [-123.14266064698317, 49.19962780052255], [-123.14274460514433, 49.1996757801071], [-123.14318710865821, 49.199942803619315], [-123.1432803704918, 49.20000277394564], [-123.1436923584964, 49.20028505628059], [-123.14375487839459, 49.200329869250396], [-123.14415160908815, 49.200627410355025], [-123.1442145286558, 49.20067693735272], [-123.1445878000588, 49.20098544936234], [-123.14485491899016, 49.20120581679206], [-123.14510298280358, 49.20138753387495], [-123.1453709905804, 49.20156231824964], [-123.14564348203939, 49.201721269103025], [-123.14594073351724, 49.20187280709517], [-123.14624989675589, 49.20201572067713], [-123.14658412475866, 49.202149410679226], [-123.1482390330593, 49.20276630274085], [-123.14923321443142, 49.20311179634712], [-123.15077823933473, 49.20357310441843], [-123.15219641315882, 49.203986420482295], [-123.15237824269025, 49.204046639293765], [-123.15255010120472, 49.204118336529525], [-123.15265691154241, 49.204167926503686], [-123.15271557412039, 49.204196196295506], [-123.15282238467344, 49.20424960091296], [-123.15293398935626, 49.20430957146429], [-123.15303317102453, 49.204366790765285], [-123.15314100273609, 49.20443367356222], [-123.15323255552656, 49.20449470756438], [-123.15327557730227, 49.20452427020251], [-123.15336713031638, 49.20458911886786], [-123.15346281082027, 49.20466192856602], [-123.15354673495295, 49.20473059195822], [-123.15360417761654, 49.20477986833038], [-123.15368047264009, 49.20484853178995], [-123.15376526812443, 49.20493107862329], [-123.1538339342422, 49.20500355683867], [-123.15385815404188, 49.205029781322246], [-123.15392682036774, 49.20510607422039], [-123.15397689522568, 49.20516503157383], [-123.15403793241249, 49.20524132456167], [-123.15408582717224, 49.20530523628381], [-123.15413923520389, 49.20538152936886], [-123.15420660541506, 49.20548994623204], [-123.15424718363032, 49.205564334318034], [-123.15428754387104, 49.20563495992694], [-123.15436221906742, 49.20579534510778], [-123.15439273984087, 49.20587926791971], [-123.15442326099185, 49.20596319176972], [-123.15446457511224, 49.206115174879464], [-123.15446618828967, 49.20611940902921], [-123.15448125838005, 49.20614093658942], [-123.15449040964585, 49.206151803243486], [-123.15452391364852, 49.20618028085723], [-123.15688019563534, 49.20803807120587], [-123.15688219344636, 49.208039768335176], [-123.15694874813393, 49.20804808765907], [-123.15711349423353, 49.20807331620768], [-123.15719741554037, 49.20808857460216], [-123.15732165085919, 49.20811395848319], [-123.15740557229867, 49.2081330314853], [-123.157489496131, 49.208152105031246], [-123.15771422448664, 49.20821314378529], [-123.15779814625355, 49.20823984601971], [-123.15786886063353, 49.2082634598572], [-123.15794515326718, 49.20829016210399], [-123.15802144814324, 49.20831686513562], [-123.15821703239749, 49.20839476730014], [-123.15829332543505, 49.208429098812964], [-123.1583767604084, 49.20846869217634], [-123.15844542433534, 49.20850302371607], [-123.1585279441863, 49.20854652782784], [-123.15859660833286, 49.208584674015974], [-123.15868621136472, 49.20863748191434], [-123.1587472464092, 49.20867562814245], [-123.15881659533386, 49.20872108585587], [-123.1588776306022, 49.20876304674467], [-123.1589377491243, 49.20880621139953], [-123.15899878461582, 49.20885198695391], [-123.15908399590889, 49.208920275954846], [-123.15913740229495, 49.208966051571394], [-123.15919081012727, 49.20901182842754], [-123.15931684709506, 49.20913297249451], [-123.15936262457676, 49.209182562865465], [-123.15937197351502, 49.20919279227172], [-123.15962644987347, 49.20947404481844], [-123.15987519210556, 49.20971093446526], [-123.16016199027936, 49.209954082681165], [-123.16046336585872, 49.2101863874179], [-123.16077608795352, 49.210404062009324], [-123.16110210495881, 49.210606309762866], [-123.16145973421325, 49.210803944056295], [-123.16182396189485, 49.21098914228997], [-123.16220607447963, 49.21115862594311], [-123.16259359985335, 49.211315480169], [-123.16299967045286, 49.2114569886457], [-123.16341755454306, 49.211587966583345], [-123.16383441431357, 49.21169973289768], [-123.1643204231198, 49.21180925556954], [-123.16434375199009, 49.211814615492116], [-123.1649464606672, 49.21195575571923], [-123.16505196850943, 49.21198262716554], [-123.16564704897654, 49.21214665508163], [-123.165757658118, 49.21217969279874], [-123.16633748134845, 49.21236660845101], [-123.16645483830068, 49.212407574305004], [-123.167011775281, 49.21261737775656], [-123.1671256910022, 49.21266358373675], [-123.16765974184347, 49.21289627504927], [-123.16766640963502, 49.21289919252353], [-123.16811106406452, 49.21309456926808], [-123.16852768870197, 49.21325155704328], [-123.16897459055039, 49.213399474375294], [-123.16941822870584, 49.21352886827813], [-123.1698608897616, 49.213636542246924], [-123.1703296528314, 49.213729061059205], [-123.17080832544573, 49.21380676758069], [-123.17128394452267, 49.21386469551903], [-123.171777634105, 49.21390531553013], [-123.17229348174511, 49.21393143438996], [-123.17571927829333, 49.214021983637366], [-123.1758061745522, 49.214025485524736], [-123.17922217132588, 49.21421064524347], [-123.17924591237126, 49.21421119668817], [-123.17990202257246, 49.214241713465455], [-123.179992238082, 49.214247218124974], [-123.18064834849957, 49.21429680788048], [-123.18077636437371, 49.214309163570334], [-123.18142484608492, 49.21438545550903], [-123.18153434420668, 49.21440035817151], [-123.18217519730418, 49.21449953771462], [-123.1822896185975, 49.21451953705172], [-123.1829152140597, 49.21464160422488], [-123.18301408986609, 49.21466269085789], [-123.1836396861518, 49.214807645682924], [-123.18375867575581, 49.21483796557094], [-123.18436138553098, 49.21500580809709], [-123.18444611511093, 49.21503089726141], [-123.18504119661101, 49.215217812892675], [-123.18515669503049, 49.21525707675742], [-123.18572889025947, 49.2154668801778], [-123.18581747798882, 49.21550129485553], [-123.18637441597204, 49.21573017146881], [-123.1864708625818, 49.21577232993381], [-123.18700491426542, 49.21602027980411], [-123.18709760241092, 49.216065933793864], [-123.18761639717684, 49.21633677158884], [-123.1877058925572, 49.21638628247706], [-123.18819417179363, 49.21667237901981], [-123.18826900772856, 49.2167184784163], [-123.18873440055593, 49.21701983371682], [-123.18881387971915, 49.217074253734225], [-123.18925638636254, 49.21739468250121], [-123.18927244663864, 49.21740644961048], [-123.18944639328731, 49.21753540723579], [-123.18959036775462, 49.21762829224666], [-123.18976626286583, 49.217729563592314], [-123.18994775414643, 49.21782564592928], [-123.19012218768651, 49.217907877964294], [-123.19030773223258, 49.21798560538088], [-123.19050943119701, 49.218059914971626], [-123.19069347751183, 49.21812126342251], [-123.19089732420352, 49.218175953730515], [-123.19113076380134, 49.2182328900593], [-123.19131622108762, 49.21827133846452], [-123.19155315171791, 49.218307153447256], [-123.19802686125612, 49.21923632008115], [-123.1981075846678, 49.21924902565918], [-123.19837460691838, 49.219294800839556], [-123.19847073454771, 49.21931292423414], [-123.19873012788226, 49.21936632862861], [-123.1988662990559, 49.219397839745334], [-123.1991180636733, 49.21946268797697], [-123.19919304221447, 49.21948312726867], [-123.19944480716039, 49.21955560473244], [-123.19959717939645, 49.219604467680824], [-123.19983368661484, 49.21968838903426], [-123.19990053045233, 49.21971317438308], [-123.20013703806264, 49.219804724994894], [-123.20019463330433, 49.219827862708996], [-123.20042351199693, 49.21992322797293], [-123.20056778858911, 49.21998917474595], [-123.2007814096928, 49.22009598398043], [-123.20083564461028, 49.22012405671284], [-123.20104926615194, 49.220238495241865], [-123.20115561378218, 49.22029957501574], [-123.20135397756336, 49.220421642927654], [-123.20138938210023, 49.22044395646155], [-123.2069512071487, 49.22403351757836], [-123.20706123128141, 49.224110285671465], [-123.20746559152282, 49.22441545605028], [-123.20752692212889, 49.22446398553422], [-123.20790839572051, 49.22478060010761], [-123.20797836280902, 49.224842196431965], [-123.20832932061147, 49.225170255307525], [-123.20838844341495, 49.22522869362622], [-123.20871651470854, 49.225572011453544], [-123.20877128304288, 49.22563280468689], [-123.20906883822308, 49.225983752224224], [-123.20911305895632, 49.22603886610235], [-123.20938772730203, 49.22640125797916], [-123.20941968541848, 49.22644541242767], [-123.21071611722985, 49.22832366535695], [-123.21090794511905, 49.22853622286868], [-123.21114412127915, 49.22876375096357], [-123.21141717793819, 49.22899129194058], [-123.21170182671598, 49.22920931564931], [-123.21199856686314, 49.229407138520685], [-123.21232091304464, 49.2295981553705], [-123.212684281474, 49.22978939926121], [-123.22109722086103, 49.23394637358585], [-123.22125664086572, 49.23403373474435], [-123.22140180809158, 49.23413116999977], [-123.22349227278998, 49.23568372404459], [-123.22361474268777, 49.23578390295701], [-123.22372212577145, 49.235891247209835], [-123.22381345068843, 49.23600478590199], [-123.22388789131044, 49.23612349209856], [-123.22394477420909, 49.2362462921181], [-123.2239835847507, 49.236372075243175], [-123.22400397175555, 49.23649970376583], [-123.22400575067923, 49.23662802327781], [-123.22398890528692, 49.23675587311189], [-123.22395358780535, 49.236882096840276], [-123.22390011755127, 49.23700555273497], [-123.2238289780477, 49.2371251240954], [-123.22180727923623, 49.240096805793506], [-123.2217151595779, 49.240215960379615], [-123.2216055004095, 49.240328568384896], [-123.22147937598633, 49.240433526547726], [-123.22133802190325, 49.240529806548054], [-123.22118282299093, 49.2406164650838], [-123.2210152997491, 49.24069265311431], [-123.22083709344935, 49.24075762418053], [-123.2206499500534, 49.24081074171981], [-123.22045570310478, 49.24085148530416], [-123.22025625576129, 49.24087945574027], [-123.22005356214477, 49.24089437898164], [-123.21984960819087, 49.24089610881419], [-123.21964639218672, 49.24088462828931], [-123.21944590518758, 49.24086004988979], [-123.21925011150425, 49.240822614427614], [-123.21906092945292, 49.240772688683975], [-123.21888021255619, 49.2407107618148], [-123.20894619037726, 49.23688439558949], [-123.20708327979735, 49.23814138176195], [-123.20693419945697, 49.23823248231282], [-123.20677209742765, 49.238313488446906], [-123.20659856117479, 49.23838360684136], [-123.20641529016616, 49.23844215079785], [-123.20622407922663, 49.23848854696897], [-123.206026800958, 49.23852234097461], [-123.20582538739637, 49.23854320185291], [-123.20562181108654, 49.23855092530222], [-123.20541806575955, 49.23854543568253], [-123.2052161468021, 49.238526786756374], [-123.20501803171001, 49.238495161162184], [-123.20482566071709, 49.23845086862524], [-123.20063084488524, 49.23732931809754], [-123.20063088720909, 49.2383460804944], [-123.20062123844619, 49.23847653715245], [-123.20059237159764, 49.23860577175619], [-123.20054455700264, 49.238732573351605], [-123.20047824255356, 49.23885575377332], [-123.20039404950421, 49.2389741587787], [-123.20029276665306, 49.23908667886436], [-123.20017534295573, 49.239192259663696], [-123.20004287863608, 49.239289911828024], [-123.19989661487861, 49.239378720298625], [-123.19973792219933, 49.23945785288272], [-123.19956828760333, 49.23952656805317], [-123.1993893006499, 49.23958422189822], [-123.19920263855579, 49.23963027415688], [-123.19901005047599, 49.23966429328249], [-123.19890371972765, 49.239676005479225], [-123.19885773649014, 49.244868306217334], [-123.19889151580774, 49.244869708001644], [-123.19893729095706, 49.24487352259823], [-123.19898824823231, 49.24487819293922], [-123.19902639420081, 49.244882007535914], [-123.19922365044789, 49.24490824304789], [-123.19926942568345, 49.24491587224417], [-123.19934622710356, 49.244929944029835], [-123.19935334932605, 49.24493113106406], [-123.19944702958335, 49.24494829543277], [-123.19948517565348, 49.244955924631356], [-123.19974159601584, 49.245019704631474], [-123.19977974224028, 49.24503114844321], [-123.19999570363788, 49.2451063927716], [-123.20002759293392, 49.245119148384674], [-123.2000961623121, 49.24514281097858], [-123.20028512502641, 49.24522671070902], [-123.20035043365952, 49.24526322237388], [-123.2061937764217, 49.248192444438395], [-123.20634565029896, 49.24827647844875], [-123.20648444750778, 49.24836970274105], [-123.20660887601512, 49.248471249561874], [-123.20671777751392, 49.24858017368434], [-123.20681013820648, 49.248695461205145], [-123.20688509824423, 49.24881603898112], [-123.2069419597347, 49.24894078461734], [-123.20698019324225, 49.24906853691398], [-123.20699944272098, 49.2491981066746], [-123.2069995288344, 49.24932828777538], [-123.20698045063021, 49.249457868392355], [-123.2069423855548, 49.24958564228193], [-123.20688568780687, 49.249710420009805], [-123.2068108850457, 49.249831040023906], [-123.20671867348369, 49.24994637946788], [-123.20660991140974, 49.25005536463478], [-123.20648561120271, 49.25015698096353], [-123.20634692990978, 49.250250282484714], [-123.20619515847697, 49.250334400628276], [-123.20603170973223, 49.25040855231058], [-123.2058581052328, 49.250472047225806], [-123.20567596109952, 49.25052429427344], [-123.20548697296981, 49.250564807062354], [-123.20154997639867, 49.2512730110781], [-123.2013514581495, 49.251309773785536], [-123.20117699786807, 49.25133677728854], [-123.20096336931542, 49.251363480885196], [-123.20085533109439, 49.25137504803486], [-123.2006417023894, 49.2513941220391], [-123.20052551489113, 49.251402307176484], [-123.20030425647798, 49.25141375158425], [-123.20019811383037, 49.251417441893786], [-123.19998448496867, 49.25142125670158], [-123.19993790008982, 49.25142174369539], [-123.19868664528846, 49.25142555853956], [-123.19865685344425, 49.25142468848194], [-123.19862204522204, 49.25520094715592], [-123.20292818926002, 49.255265761088886], [-123.20313449623487, 49.25527565809528], [-123.20333824914118, 49.25529903952737], [-123.20353739622608, 49.25533566993877], [-123.20372993210529, 49.25538518046803], [-123.20391391795292, 49.255447072552016], [-123.20408750102143, 49.25552072294541], [-123.20424893329604, 49.25560538999523], [-123.2043965890954, 49.25570022110778], [-123.20452898144165, 49.25580426133255], [-123.20464477703514, 49.255916462977], [-123.20474280968263, 49.256035696155216], [-123.20482209204418, 49.25616076016447], [-123.20488182557992, 49.25629039557519], [-123.20492140859663, 49.25642329691264], [-123.20500949271936, 49.25682561486518], [-123.21543264900549, 49.2569823739258], [-123.21563425165287, 49.256991884469485], [-123.2158334623366, 49.25701427206768], [-123.21602836595314, 49.257049321498265], [-123.21621708879488, 49.25709669581481], [-123.21639781655917, 49.25715593958496], [-123.21656881178683, 49.25722648326781], [-123.21672843056284, 49.257307648687956], [-123.21687513831866, 49.25739865555395], [-123.21700752458435, 49.25749862895811], [-123.21712431654869, 49.2576066077863], [-123.21722439129736, 49.25772155395611], [-123.21730678661059, 49.257842362395564], [-123.21737071021732, 49.2579678716656], [-123.21741554741646, 49.25809687512507], [-123.21744086699132, 49.25822813253037], [-123.21744642536112, 49.25836038195858], [-123.21719577063196, 49.265973401212705], [-123.2181011076391, 49.265912676623174], [-123.21926529852354, 49.265779728638734], [-123.21946306187671, 49.26576354259333], [-123.21966228926593, 49.26575992784383], [-123.21986111919345, 49.265768918164774], [-123.22005769387444, 49.265790429554094], [-123.22025017659101, 49.26582426101774], [-123.22043676884998, 49.265870096447365], [-123.22061572718356, 49.26592750757319], [-123.22078537943678, 49.265995957964684], [-123.22094414038914, 49.266074808041736], [-123.2210905265648, 49.266163321049454], [-123.22122317009338, 49.26626066994091], [-123.22134083149116, 49.26636594510353], [-123.22144241124396, 49.26647816285698], [-123.2215269600831, 49.26659627464322], [-123.22159368785826, 49.26671917682313], [-123.22164197092474, 49.266845720987696], [-123.22167135797521, 49.26697472468807], [-123.22168157426199, 49.26710498248391], [-123.22168198875623, 49.26719758500215]]]}}